{"type": "FeatureCollection", "features": [ {"type": "Feature", "properties": {"norad_id": 40697, "name": "SENTINEL-2A", "group": "resource", "lat": 76.14523950150335, "lon": 22.401225720890498, "alt_km": 781.013024578252, "timestamp": "2025-12-13T13:34:34.731960+00:00", "meta": {"OBJECT_NAME": "SENTINEL-2A", "OBJECT_ID": "2015-028A", "EPOCH": "2025-12-12T23:46:53.587200", "MEAN_MOTION": 14.30812955, "ECCENTRICITY": 0.00010956, "INCLINATION": 98.5686, "RA_OF_ASC_NODE": 59.5192, "ARG_OF_PERICENTER": 87.838, "MEAN_ANOMALY": 272.2928, "EPHEMERIS_TYPE": 0, "CLASSIFICATION_TYPE": "U", "NORAD_CAT_ID": 40697, "ELEMENT_SET_NO": 999, "REV_AT_EPOCH": 54710, "BSTAR": 8.9346031e-05, "MEAN_MOTION_DOT": 1.91e-06, "MEAN_MOTION_DDOT": 0}, "tle": {"line1": "1 40697U 15028A   25346.99089800  .00000191  00000+0  89346-4 0  9999", "line2": "2 40697  98.5686  59.5192 0001095  87.8380 272.2928 14.30812955547107"}}, "geometry": {"type": "Point", "coordinates": [22.401225720890498, 76.14523950150335]}}, {"type": "Feature", "properties": {"norad_id": 40701, "name": "GAOFEN-8", "group": "resource", "lat": 81.12458192308614, "lon": 105.80955702689444, "alt_km": 437.76258229975156, "timestamp": "2025-12-13T13:34:34.731970+00:00", "meta": {"OBJECT_NAME": "GAOFEN-8", "OBJECT_ID": "2015-030A", "EPOCH": "2025-12-13T00:43:06.429792", "MEAN_MOTION": 15.38547412, "ECCENTRICITY": 0.00116128, "INCLINATION": 97.6914, "RA_OF_ASC_NODE": 165.184, "ARG_OF_PERICENTER": 136.705, "MEAN_ANOMALY": 223.5109, "EPHEMERIS_TYPE": 0, "CLASSIFICATION_TYPE": "U", "NORAD_CAT_ID": 40701, "ELEMENT_SET_NO": 999, "REV_AT_EPOCH": 58275, "BSTAR": 0.00023302597, "MEAN_MOTION_DOT": 8.797e-05, "MEAN_MOTION_DDOT": 0}, "tle": {"line1": "1 40701U 15030A   25347.02993553  .00008797  00000+0  23303-3 0  9992", "line2": "2 40701  97.6914 165.1840 0011612 136.7050 223.5109 15.38547412582757"}}, "geometry": {"type": "Point", "coordinates": [105.80955702689444, 81.12458192308614]}}, {"type": "Feature", "properties": {"norad_id": 40718, "name": "CARBONITE 1 (CBNT-1)", "group": "resource", "lat": -31.284354755598585, "lon": -16.105749562652157, "alt_km": 618.1892506791564, "timestamp": "2025-12-13T13:34:34.731979+00:00", "meta": {"OBJECT_NAME": "CARBONITE 1 (CBNT-1)", "OBJECT_ID": "2015-032D", "EPOCH": "2025-12-12T23:40:08.035968", "MEAN_MOTION": 14.82746695, "ECCENTRICITY": 0.00144682, "INCLINATION": 97.6405, "RA_OF_ASC_NODE": 168.0192, "ARG_OF_PERICENTER": 180.7979, "MEAN_ANOMALY": 179.3215, "EPHEMERIS_TYPE": 0, "CLASSIFICATION_TYPE": "U", "NORAD_CAT_ID": 40718, "ELEMENT_SET_NO": 999, "REV_AT_EPOCH": 56174, "BSTAR": 0.00042073606, "MEAN_MOTION_DOT": 3.354e-05, "MEAN_MOTION_DDOT": 0}, "tle": {"line1": "1 40718U 15032D   25346.98620412  .00003354  00000+0  42074-3 0  9997", "line2": "2 40718  97.6405 168.0192 0014468 180.7979 179.3215 14.82746695561747"}}, "geometry": {"type": "Point", "coordinates": [-16.105749562652157, -31.284354755598585]}}, {"type": "Feature", "properties": {"norad_id": 40878, "name": "YAOGAN-27", "group": "resource", "lat": 44.22810433801933, "lon": 167.14061122292173, "alt_km": 1200.907385935362, "timestamp": "2025-12-13T13:34:34.731988+00:00", "meta": {"OBJECT_NAME": "YAOGAN-27", "OBJECT_ID": "2015-040A", "EPOCH": "2025-12-13T00:07:17.075136", "MEAN_MOTION": 13.1606122, "ECCENTRICITY": 0.00076326, "INCLINATION": 100.1016, "RA_OF_ASC_NODE": 336.6129, "ARG_OF_PERICENTER": 286.1396, "MEAN_ANOMALY": 73.8878, "EPHEMERIS_TYPE": 0, "CLASSIFICATION_TYPE": "U", "NORAD_CAT_ID": 40878, "ELEMENT_SET_NO": 999, "REV_AT_EPOCH": 49317, "BSTAR": 0.00027072644, "MEAN_MOTION_DOT": 6e-07, "MEAN_MOTION_DDOT": 0}, "tle": {"line1": "1 40878U 15040A   25347.00505874  .00000060  00000+0  27073-3 0  9994", "line2": "2 40878 100.1016 336.6129 0007632 286.1396  73.8878 13.16061220493178"}}, "geometry": {"type": "Point", "coordinates": [167.14061122292173, 44.22810433801933]}}, {"type": "Feature", "properties": {"norad_id": 40894, "name": "GAOFEN-9 01", "group": "resource", "lat": 47.78419994217345, "lon": -144.98962197251757, "alt_km": 620.8076488422194, "timestamp": "2025-12-13T13:34:34.731998+00:00", "meta": {"OBJECT_NAME": "GAOFEN-9 01", "OBJECT_ID": "2015-047A", "EPOCH": "2025-12-13T00:01:38.443296", "MEAN_MOTION": 14.82423892, "ECCENTRICITY": 0.00283611, "INCLINATION": 97.6546, "RA_OF_ASC_NODE": 25.9453, "ARG_OF_PERICENTER": 33.5082, "MEAN_ANOMALY": 326.7919, "EPHEMERIS_TYPE": 0, "CLASSIFICATION_TYPE": "U", "NORAD_CAT_ID": 40894, "ELEMENT_SET_NO": 999, "REV_AT_EPOCH": 55260, "BSTAR": 0.00026418068, "MEAN_MOTION_DOT": 2.081e-05, "MEAN_MOTION_DDOT": 0}, "tle": {"line1": "1 40894U 15047A   25347.00113939  .00002081  00000+0  26418-3 0  9993", "line2": "2 40894  97.6546  25.9453 0028361  33.5082 326.7919 14.82423892552601"}}, "geometry": {"type": "Point", "coordinates": [-144.98962197251757, 47.78419994217345]}}, {"type": "Feature", "properties": {"norad_id": 41026, "name": "YAOGAN-28", "group": "resource", "lat": 46.40628895506896, "lon": 117.6174292133628, "alt_km": 486.6213798491681, "timestamp": "2025-12-13T13:34:34.732007+00:00", "meta": {"OBJECT_NAME": "YAOGAN-28", "OBJECT_ID": "2015-064A", "EPOCH": "2025-12-13T00:46:03.655200", "MEAN_MOTION": 15.24360185, "ECCENTRICITY": 0.00123998, "INCLINATION": 97.2802, "RA_OF_ASC_NODE": 124.8157, "ARG_OF_PERICENTER": 124.9963, "MEAN_ANOMALY": 235.2441, "EPHEMERIS_TYPE": 0, "CLASSIFICATION_TYPE": "U", "NORAD_CAT_ID": 41026, "ELEMENT_SET_NO": 999, "REV_AT_EPOCH": 56229, "BSTAR": 0.00049464206, "MEAN_MOTION_DOT": 0.00012074, "MEAN_MOTION_DDOT": 0}, "tle": {"line1": "1 41026U 15064A   25347.03198675  .00012074  00000+0  49464-3 0  9992", "line2": "2 41026  97.2802 124.8157 0012399 124.9963 235.2441 15.24360185562299"}}, "geometry": {"type": "Point", "coordinates": [117.6174292133628, 46.40628895506896]}}, {"type": "Feature", "properties": {"norad_id": 41038, "name": "YAOGAN-29", "group": "resource", "lat": 20.147060311275578, "lon": 7.774017892960298, "alt_km": 620.2629088551794, "timestamp": "2025-12-13T13:34:34.732016+00:00", "meta": {"OBJECT_NAME": "YAOGAN-29", "OBJECT_ID": "2015-069A", "EPOCH": "2025-12-13T00:31:45.005952", "MEAN_MOTION": 14.82882755, "ECCENTRICITY": 1.72e-05, "INCLINATION": 98.0222, "RA_OF_ASC_NODE": 10.1945, "ARG_OF_PERICENTER": 314.4133, "MEAN_ANOMALY": 45.7066, "EPHEMERIS_TYPE": 0, "CLASSIFICATION_TYPE": "U", "NORAD_CAT_ID": 41038, "ELEMENT_SET_NO": 999, "REV_AT_EPOCH": 54303, "BSTAR": 0.00012118115, "MEAN_MOTION_DOT": 9.28e-06, "MEAN_MOTION_DDOT": 0}, "tle": {"line1": "1 41038U 15069A   25347.02204868  .00000928  00000+0  12118-3 0  9992", "line2": "2 41038  98.0222  10.1945 0000172 314.4133  45.7066 14.82882755543033"}}, "geometry": {"type": "Point", "coordinates": [7.774017892960298, 20.147060311275578]}}, {"type": "Feature", "properties": {"norad_id": 41167, "name": "KENT RIDGE 1", "group": "resource", "lat": 7.9857219167305225, "lon": -123.33346531862374, "alt_km": 498.99130307813084, "timestamp": "2025-12-13T13:34:34.732026+00:00", "meta": {"OBJECT_NAME": "KENT RIDGE 1", "OBJECT_ID": "2015-077B", "EPOCH": "2025-12-12T23:16:30.783072", "MEAN_MOTION": 15.21639218, "ECCENTRICITY": 0.00085187, "INCLINATION": 14.9786, "RA_OF_ASC_NODE": 209.434, "ARG_OF_PERICENTER": 133.9708, "MEAN_ANOMALY": 226.1317, "EPHEMERIS_TYPE": 0, "CLASSIFICATION_TYPE": "U", "NORAD_CAT_ID": 41167, "ELEMENT_SET_NO": 999, "REV_AT_EPOCH": 55267, "BSTAR": 0.00025287461, "MEAN_MOTION_DOT": 6.651e-05, "MEAN_MOTION_DDOT": 0}, "tle": {"line1": "1 41167U 15077B   25346.96980073  .00006651  00000+0  25287-3 0  9995", "line2": "2 41167  14.9786 209.4340 0008518 133.9708 226.1317 15.21639218552676"}}, "geometry": {"type": "Point", "coordinates": [-123.33346531862374, 7.9857219167305225]}}, {"type": "Feature", "properties": {"norad_id": 41194, "name": "GAOFEN-4", "group": "resource", "lat": -0.11276406221232578, "lon": 31.801427706748626, "alt_km": 35799.94149563889, "timestamp": "2025-12-13T13:34:34.732037+00:00", "meta": {"OBJECT_NAME": "GAOFEN-4", "OBJECT_ID": "2015-083A", "EPOCH": "2025-12-13T00:15:17.610336", "MEAN_MOTION": 1.00269426, "ECCENTRICITY": 0.00034395, "INCLINATION": 0.1712, "RA_OF_ASC_NODE": 81.169, "ARG_OF_PERICENTER": 105.5007, "MEAN_ANOMALY": 4.7923, "EPHEMERIS_TYPE": 0, "CLASSIFICATION_TYPE": "U", "NORAD_CAT_ID": 41194, "ELEMENT_SET_NO": 999, "REV_AT_EPOCH": 3666, "BSTAR": 0, "MEAN_MOTION_DOT": -3.22e-06, "MEAN_MOTION_DDOT": 0}, "tle": {"line1": "1 41194U 15083A   25347.01062049 -.00000322  00000+0  00000+0 0  9995", "line2": "2 41194   0.1712  81.1690 0003439 105.5007   4.7923  1.00269426 36660"}}, "geometry": {"type": "Point", "coordinates": [31.801427706748626, -0.11276406221232578]}}, {"type": "Feature", "properties": {"norad_id": 41240, "name": "JASON-3", "group": "resource", "lat": 0.252144776291231, "lon": -24.024241321961114, "alt_km": 1312.928824131196, "timestamp": "2025-12-13T13:34:34.732047+00:00", "meta": {"OBJECT_NAME": "JASON-3", "OBJECT_ID": "2016-002A", "EPOCH": "2025-12-12T23:35:50.506080", "MEAN_MOTION": 12.87626524, "ECCENTRICITY": 0.00071341, "INCLINATION": 66.039, "RA_OF_ASC_NODE": 157.3122, "ARG_OF_PERICENTER": 270.8442, "MEAN_ANOMALY": 89.1759, "EPHEMERIS_TYPE": 0, "CLASSIFICATION_TYPE": "U", "NORAD_CAT_ID": 41240, "ELEMENT_SET_NO": 999, "REV_AT_EPOCH": 46327, "BSTAR": 0.00012748474, "MEAN_MOTION_DOT": -3e-07, "MEAN_MOTION_DDOT": 0}, "tle": {"line1": "1 41240U 16002A   25346.98322345 -.00000030  00000+0  12748-3 0  9994", "line2": "2 41240  66.0390 157.3122 0007134 270.8442  89.1759 12.87626524463274"}}, "geometry": {"type": "Point", "coordinates": [-24.024241321961114, 0.252144776291231]}}]}